{
  "norad_id": 57101,
  "name": "STARLINK-6132",
  "history": [
    {
      "epoch": "2026-04-13T06:00:02.000160Z",
      "apogee_km": 506.4736051314321,
      "perigee_km": 505.1941503040989,
      "latitude_deg": -31.090977549419595,
      "longitude_deg": 14.77698716626911,
      "height_km": 514.2426847828515,
      "semi_major_axis_km": 6883.970877717765,
      "eccentricity": 9.293e-05,
      "inclination_deg": 42.9992,
      "raan_deg": 86.2037,
      "arg_perigee_deg": 315.5308,
      "mean_anomaly_deg": 273.3615,
      "mean_motion_rev_day": 15.20002231
    },
    {
      "epoch": "2026-04-14T20:00:01.999008Z",
      "apogee_km": 501.51334251333265,
      "perigee_km": 498.469082966375,
      "latitude_deg": -43.04017635667837,
      "longitude_deg": -160.85607304093773,
      "height_km": 511.98670913299856,
      "semi_major_axis_km": 6878.128212739854,
      "eccentricity": 0.0002213,
      "inclination_deg": 43.0003,
      "raan_deg": 77.3562,
      "arg_perigee_deg": 235.4737,
      "mean_anomaly_deg": 30.6983,
      "mean_motion_rev_day": 15.21939404
    },
    {
      "epoch": "2026-04-15T20:00:01.999008Z",
      "apogee_km": 498.11506185356484,
      "perigee_km": 494.7588948373377,
      "latitude_deg": -5.3926798484176235,
      "longitude_deg": -78.02059185469581,
      "height_km": 497.22204300305276,
      "semi_major_axis_km": 6874.573978345451,
      "eccentricity": 0.0002441,
      "inclination_deg": 43.0008,
      "raan_deg": 71.7552,
      "arg_perigee_deg": 257.0267,
      "mean_anomaly_deg": 95.156,
      "mean_motion_rev_day": 15.23119847
    },
    {
      "epoch": "2026-04-16T20:00:01.999008Z",
      "apogee_km": 493.78171170271617,
      "perigee_km": 491.88257583137784,
      "latitude_deg": 42.70002658758319,
      "longitude_deg": 0.9225705259402147,
      "height_km": 496.82348701645054,
      "semi_major_axis_km": 6870.969143767046,
      "eccentricity": 0.0001382,
      "inclination_deg": 43.0006,
      "raan_deg": 66.1452,
      "arg_perigee_deg": 271.3742,
      "mean_anomaly_deg": 171.1059,
      "mean_motion_rev_day": 15.24318655
    },
    {
      "epoch": "2026-04-18T00:00:04.000320Z",
      "apogee_km": 489.819552048858,
      "perigee_km": 487.29000013238146,
      "latitude_deg": 9.06345526089943,
      "longitude_deg": -136.7626759007647,
      "height_km": 487.8807437946223,
      "semi_major_axis_km": 6866.69177609062,
      "eccentricity": 0.00018419,
      "inclination_deg": 43.0007,
      "raan_deg": 59.5848,
      "arg_perigee_deg": 270.885,
      "mean_anomaly_deg": 102.453,
      "mean_motion_rev_day": 15.25743159
    },
    {
      "epoch": "2026-04-18T20:00:01.000224Z",
      "apogee_km": 487.0943585783789,
      "perigee_km": 485.0117633138889,
      "latitude_deg": -42.865488035210454,
      "longitude_deg": -173.8549322863241,
      "height_km": 498.3921772167658,
      "semi_major_axis_km": 6864.190060946134,
      "eccentricity": 0.0001517,
      "inclination_deg": 43.0013,
      "raan_deg": 54.8938,
      "arg_perigee_deg": 244.7126,
      "mean_anomaly_deg": 31.3075,
      "mean_motion_rev_day": 15.26577341
    },
    {
      "epoch": "2026-04-19T20:00:01.999008Z",
      "apogee_km": 486.54330066626335,
      "perigee_km": 484.6996951337269,
      "latitude_deg": 12.544729337590377,
      "longitude_deg": -84.95887840457729,
      "height_km": 485.2575493688832,
      "semi_major_axis_km": 6863.758497899995,
      "eccentricity": 0.0001343,
      "inclination_deg": 43.0014,
      "raan_deg": 49.2553,
      "arg_perigee_deg": 246.022,
      "mean_anomaly_deg": 132.509,
      "mean_motion_rev_day": 15.2672132
    },
    {
      "epoch": "2026-04-20T14:00:03.000384Z",
      "apogee_km": 486.80977003925545,
      "perigee_km": 484.72712384854367,
      "latitude_deg": -3.913579001509518,
      "longitude_deg": 170.52360870118162,
      "height_km": 485.7237362567128,
      "semi_major_axis_km": 6863.9054469439,
      "eccentricity": 0.00015171,
      "inclination_deg": 43.0106,
      "raan_deg": 45.0254,
      "arg_perigee_deg": 252.2805,
      "mean_anomaly_deg": 293.359,
      "mean_motion_rev_day": 15.26672292
    },
    {
      "epoch": "2026-04-21T20:00:01.999008Z",
      "apogee_km": 483.83517443488927,
      "perigee_km": 482.3284507836406,
      "latitude_deg": -29.430483247841938,
      "longitude_deg": 105.03095108750998,
      "height_km": 490.29144950735366,
      "semi_major_axis_km": 6861.218812609265,
      "eccentricity": 0.0001098,
      "inclination_deg": 43.0119,
      "raan_deg": 37.9719,
      "arg_perigee_deg": 264.1551,
      "mean_anomaly_deg": 321.6128,
      "mean_motion_rev_day": 15.27569074
    },
    {
      "epoch": "2026-04-22T20:00:03.000384Z",
      "apogee_km": 483.87491458918976,
      "perigee_km": 482.2049041294513,
      "latitude_deg": -19.101765404158165,
      "longitude_deg": -140.2496072024456,
      "height_km": 486.90958441203253,
      "semi_major_axis_km": 6861.17690935932,
      "eccentricity": 0.0001217,
      "inclination_deg": 43.001,
      "raan_deg": 32.3255,
      "arg_perigee_deg": 260.7244,
      "mean_anomaly_deg": 70.8282,
      "mean_motion_rev_day": 15.27583068
    }
  ]
}